[{"OBJECT_NAME":"RED-EYE 1 (PINOT)","OBJECT_ID":"1998-067QJ","EPOCH":"2020-12-14T05:22:05.745504","MEAN_MOTION":15.5621984,"ECCENTRICITY":0.0006129,"INCLINATION":51.6388,"RA_OF_ASC_NODE":162.3682,"ARG_OF_PERICENTER":269.5114,"MEAN_ANOMALY":90.5175,"EPHEMERIS_TYPE":0,"CLASSIFICATION_TYPE":"U","NORAD_CAT_ID":44364,"ELEMENT_SET_NO":999,"REV_AT_EPOCH":8331,"BSTAR":8.2861e-5,"MEAN_MOTION_DOT":5.436e-5,"MEAN_MOTION_DDOT":0},{"OBJECT_NAME":"IOD-1 GEMS","OBJECT_ID":"1998-067QK","EPOCH":"2020-12-14T13:39:44.855424","MEAN_MOTION":15.71402312,"ECCENTRICITY":0.0003621,"INCLINATION":51.6353,"RA_OF_ASC_NODE":141.4107,"ARG_OF_PERICENTER":270.8713,"MEAN_ANOMALY":89.187,"EPHEMERIS_TYPE":0,"CLASSIFICATION_TYPE":"U","NORAD_CAT_ID":44385,"ELEMENT_SET_NO":999,"REV_AT_EPOCH":8268,"BSTAR":0.00044388,"MEAN_MOTION_DOT":0.00057621,"MEAN_MOTION_DDOT":0},{"OBJECT_NAME":"SWIATOWID","OBJECT_ID":"1998-067QL","EPOCH":"2020-12-14T23:42:23.177664","MEAN_MOTION":15.74706152,"ECCENTRICITY":0.0004442,"INCLINATION":51.6361,"RA_OF_ASC_NODE":136.4358,"ARG_OF_PERICENTER":265.5329,"MEAN_ANOMALY":194.8797,"EPHEMERIS_TYPE":0,"CLASSIFICATION_TYPE":"U","NORAD_CAT_ID":44426,"ELEMENT_SET_NO":999,"REV_AT_EPOCH":8279,"BSTAR":0.00059507,"MEAN_MOTION_DOT":0.0008963,"MEAN_MOTION_DDOT":0},{"OBJECT_NAME":"KRAKSAT","OBJECT_ID":"1998-067QM","EPOCH":"2020-12-14T23:23:40.327584","MEAN_MOTION":15.59940843,"ECCENTRICITY":0.0003066,"INCLINATION":51.6406,"RA_OF_ASC_NODE":152.9679,"ARG_OF_PERICENTER":252.0248,"MEAN_ANOMALY":196.3359,"EPHEMERIS_TYPE":0,"CLASSIFICATION_TYPE":"U","NORAD_CAT_ID":44427,"ELEMENT_SET_NO":999,"REV_AT_EPOCH":8261,"BSTAR":0.00022096,"MEAN_MOTION_DOT":0.00017698,"MEAN_MOTION_DDOT":0},{"OBJECT_NAME":"VCC A","OBJECT_ID":"1998-067QN","EPOCH":"2020-12-14T17:33:49.526208","MEAN_MOTION":15.62663916,"ECCENTRICITY":0.0002548,"INCLINATION":51.6363,"RA_OF_ASC_NODE":150.0231,"ARG_OF_PERICENTER":270.7509,"MEAN_ANOMALY":89.3193,"EPHEMERIS_TYPE":0,"CLASSIFICATION_TYPE":"U","NORAD_CAT_ID":44428,"ELEMENT_SET_NO":999,"REV_AT_EPOCH":8263,"BSTAR":0.00027748,"MEAN_MOTION_DOT":0.00024896,"MEAN_MOTION_DDOT":0},{"OBJECT_NAME":"ENTRYSAT","OBJECT_ID":"1998-067QP","EPOCH":"2020-12-14T17:21:03.921120","MEAN_MOTION":15.65097346,"ECCENTRICITY":0.0002711,"INCLINATION":51.6335,"RA_OF_ASC_NODE":146.8998,"ARG_OF_PERICENTER":263.2045,"MEAN_ANOMALY":96.8642,"EPHEMERIS_TYPE":0,"CLASSIFICATION_TYPE":"U","NORAD_CAT_ID":44429,"ELEMENT_SET_NO":999,"REV_AT_EPOCH":8267,"BSTAR":0.0003187,"MEAN_MOTION_DOT":0.00031628,"MEAN_MOTION_DDOT":0},{"OBJECT_NAME":"VCC C","OBJECT_ID":"1998-067QQ","EPOCH":"2020-12-14T20:41:56.929344","MEAN_MOTION":15.68576204,"ECCENTRICITY":0.0002669,"INCLINATION":51.6343,"RA_OF_ASC_NODE":142.5807,"ARG_OF_PERICENTER":271.3656,"MEAN_ANOMALY":88.7035,"EPHEMERIS_TYPE":0,"CLASSIFICATION_TYPE":"U","NORAD_CAT_ID":44430,"ELEMENT_SET_NO":999,"REV_AT_EPOCH":8156,"BSTAR":0.00038971,"MEAN_MOTION_DOT":0.00044793,"MEAN_MOTION_DDOT":0},{"OBJECT_NAME":"VCC B","OBJECT_ID":"1998-067QR","EPOCH":"2020-12-15T04:05:22.924608","MEAN_MOTION":15.62834016,"ECCENTRICITY":0.0002722,"INCLINATION":51.6344,"RA_OF_ASC_NODE":147.6595,"ARG_OF_PERICENTER":273.3826,"MEAN_ANOMALY":86.6857,"EPHEMERIS_TYPE":0,"CLASSIFICATION_TYPE":"U","NORAD_CAT_ID":44431,"ELEMENT_SET_NO":999,"REV_AT_EPOCH":8264,"BSTAR":0.00028095,"MEAN_MOTION_DOT":0.00025387,"MEAN_MOTION_DDOT":0},{"OBJECT_NAME":"ISS DEB","OBJECT_ID":"1998-067QT","EPOCH":"2020-12-15T03:52:20.110368","MEAN_MOTION":15.65142872,"ECCENTRICITY":0.0004314,"INCLINATION":51.6359,"RA_OF_ASC_NODE":154.3494,"ARG_OF_PERICENTER":283.6757,"MEAN_ANOMALY":76.3758,"EPHEMERIS_TYPE":0,"CLASSIFICATION_TYPE":"U","NORAD_CAT_ID":44788,"ELEMENT_SET_NO":999,"REV_AT_EPOCH":6158,"BSTAR":0.00046845,"MEAN_MOTION_DOT":0.00046935,"MEAN_MOTION_DDOT":0},{"OBJECT_NAME":"ISS DEB","OBJECT_ID":"1998-067QU","EPOCH":"2020-12-14T04:21:10.101024","MEAN_MOTION":15.6364309,"ECCENTRICITY":0.000485,"INCLINATION":51.6356,"RA_OF_ASC_NODE":160.5801,"ARG_OF_PERICENTER":287.353,"MEAN_ANOMALY":72.6934,"EPHEMERIS_TYPE":0,"CLASSIFICATION_TYPE":"U","NORAD_CAT_ID":44789,"ELEMENT_SET_NO":999,"REV_AT_EPOCH":6140,"BSTAR":0.00044929,"MEAN_MOTION_DOT":0.00042356,"MEAN_MOTION_DDOT":0},{"OBJECT_NAME":"RWASAT-1","OBJECT_ID":"1998-067QV","EPOCH":"2020-12-15T05:26:18.600288","MEAN_MOTION":15.55507559,"ECCENTRICITY":0.0006792,"INCLINATION":51.6398,"RA_OF_ASC_NODE":162.6883,"ARG_OF_PERICENTER":329.0919,"MEAN_ANOMALY":201.7389,"EPHEMERIS_TYPE":0,"CLASSIFICATION_TYPE":"U","NORAD_CAT_ID":44790,"ELEMENT_SET_NO":999,"REV_AT_EPOCH":6073,"BSTAR":0.00015478,"MEAN_MOTION_DOT":0.00010309,"MEAN_MOTION_DDOT":0},{"OBJECT_NAME":"AQT-D","OBJECT_ID":"1998-067QW","EPOCH":"2020-12-14T21:59:12.813792","MEAN_MOTION":15.55508331,"ECCENTRICITY":0.0005935,"INCLINATION":51.6397,"RA_OF_ASC_NODE":164.772,"ARG_OF_PERICENTER":296.6973,"MEAN_ANOMALY":63.341,"EPHEMERIS_TYPE":0,"CLASSIFICATION_TYPE":"U","NORAD_CAT_ID":44791,"ELEMENT_SET_NO":999,"REV_AT_EPOCH":6068,"BSTAR":0.00015849,"MEAN_MOTION_DOT":0.00010567,"MEAN_MOTION_DDOT":0},{"OBJECT_NAME":"NARSSCUBE-1","OBJECT_ID":"1998-067QX","EPOCH":"2020-12-14T22:35:16.520352","MEAN_MOTION":15.57953541,"ECCENTRICITY":0.0004052,"INCLINATION":51.6367,"RA_OF_ASC_NODE":161.8856,"ARG_OF_PERICENTER":313.4164,"MEAN_ANOMALY":46.649,"EPHEMERIS_TYPE":0,"CLASSIFICATION_TYPE":"U","NORAD_CAT_ID":44792,"ELEMENT_SET_NO":999,"REV_AT_EPOCH":6072,"BSTAR":0.00024241,"MEAN_MOTION_DOT":0.00018032,"MEAN_MOTION_DDOT":0},{"OBJECT_NAME":"STPSAT-4","OBJECT_ID":"1998-067QY","EPOCH":"2020-12-15T00:32:32.463744","MEAN_MOTION":15.51678735,"ECCENTRICITY":0.0004827,"INCLINATION":51.6392,"RA_OF_ASC_NODE":171.416,"ARG_OF_PERICENTER":314.7416,"MEAN_ANOMALY":45.3181,"EPHEMERIS_TYPE":0,"CLASSIFICATION_TYPE":"U","NORAD_CAT_ID":45043,"ELEMENT_SET_NO":999,"REV_AT_EPOCH":4984,"BSTAR":0.00010443,"MEAN_MOTION_DOT":5.867e-5,"MEAN_MOTION_DDOT":0},{"OBJECT_NAME":"HARP","OBJECT_ID":"1998-067QZ","EPOCH":"2020-12-14T23:20:35.718432","MEAN_MOTION":15.53993307,"ECCENTRICITY":0.0006438,"INCLINATION":51.6397,"RA_OF_ASC_NODE":168.864,"ARG_OF_PERICENTER":304.4994,"MEAN_ANOMALY":55.5388,"EPHEMERIS_TYPE":0,"CLASSIFICATION_TYPE":"U","NORAD_CAT_ID":45256,"ELEMENT_SET_NO":999,"REV_AT_EPOCH":4654,"BSTAR":0.00012205,"MEAN_MOTION_DOT":7.571e-5,"MEAN_MOTION_DDOT":0},{"OBJECT_NAME":"1998-067RA","OBJECT_ID":"1998-067RA","EPOCH":"2020-12-14T05:15:11.051424","MEAN_MOTION":15.53586126,"ECCENTRICITY":0.0006827,"INCLINATION":51.6383,"RA_OF_ASC_NODE":172.8107,"ARG_OF_PERICENTER":304.4663,"MEAN_ANOMALY":55.5682,"EPHEMERIS_TYPE":0,"CLASSIFICATION_TYPE":"U","NORAD_CAT_ID":45257,"ELEMENT_SET_NO":999,"REV_AT_EPOCH":4642,"BSTAR":0.00013921,"MEAN_MOTION_DOT":8.573e-5,"MEAN_MOTION_DDOT":0},{"OBJECT_NAME":"PHOENIX","OBJECT_ID":"1998-067RB","EPOCH":"2020-12-15T05:22:21.205056","MEAN_MOTION":15.53096947,"ECCENTRICITY":0.0005286,"INCLINATION":51.6384,"RA_OF_ASC_NODE":168.2603,"ARG_OF_PERICENTER":287.8186,"MEAN_ANOMALY":72.2228,"EPHEMERIS_TYPE":0,"CLASSIFICATION_TYPE":"U","NORAD_CAT_ID":45258,"ELEMENT_SET_NO":999,"REV_AT_EPOCH":4654,"BSTAR":0.00013505,"MEAN_MOTION_DOT":8.148e-5,"MEAN_MOTION_DDOT":0}]
